FLOCK 1C-3              
1 40041U 14033AH  17153.18309172  .00000996  00000-0  11285-3 0  9992
2 40041  97.9264  65.6616 0013370 346.9510  13.1368 14.88622766160256
POLYITAN-1              
1 40042U 14033AJ  17153.25795732  .00000396  00000-0  49232-4 0  9990
2 40042  97.9211  64.3543 0014589 348.4930  11.5951 14.88040684159699
TIGRISAT                
1 40043U 14033AK  17153.24091972  .00000169  00000-0  32718-4 0  9994
2 40043  97.8596  38.2704 0059947 343.8069  16.1223 14.73971766158334
LEMUR-1                 
1 40044U 14033AL  17153.22031172  .00000153  00000-0  30601-4 0  9991
2 40044  97.8593  38.0004 0059099 344.9993  14.9461 14.73796172158627
AEROCUBE 6A             
1 40045U 14033AM  17153.21016356  .00000390  00000-0  64439-4 0  9997
2 40045  97.8709  39.3478 0058160 339.7334  20.1567 14.74806924158270
AEROCUBE 6B             
1 40046U 14033AN  17153.21023216  .00000386  00000-0  63835-4 0  9995
2 40046  97.8703  39.2831 0057370 339.3528  20.5363 14.74807971158271
UKUBE-1                 
1 40074U 14037F   17153.25174524  .00000585  00000-0  78218-4 0  9995
2 40074  98.3449 267.4985 0005892  96.7219 263.4671 14.83489393156961
BRITE-PL 2              
1 40119U 14049B   17153.17999132  .00000150  00000-0  24459-4 0  9995
2 40119  97.9360 239.1606 0018659 135.2346 225.0378 14.84132704150840
FIREBIRD 4              
1 40378U 15003C   17153.21147866  .00001876  00000-0  83112-4 0  9994
2 40378  99.1230 334.2200 0137468  52.2232 309.1354 15.15328995128731
GRIFEX                  
1 40379U 15003D   17153.23820979  .00001860  00000-0  86961-4 0  9998
2 40379  99.1246 332.0952 0143304  59.4570 302.0709 15.12901705128615
EXOCUBE                 
1 40380U 15003E   17153.20933630  .00000933  00000-0  47583-4 0  9993
2 40380  99.1284 330.8417 0146906  63.3507 298.2678 15.11440005128527
DEORBITSAIL             
1 40719U 15032E   17153.27576085  .00000450  00000-0  72676-4 0  9990
2 40719  97.9822  47.2189 0016033 186.3724 173.7284 14.76041873102124
TIANWANG 1C (TW-1C)     
1 40926U 15051B   17153.07737372  .00009820  00000-0  22808-3 0  9998
2 40926  97.2296 192.7566 0009867 220.8415 195.2597 15.42508394 94592
TIANWANG 1B (TW-1B)     
1 40927U 15051C   17153.14011666  .00009865  00000-0  23757-3 0  9991
2 40927  97.2392 192.8435 0010272 227.6593 206.7315 15.41413706 94553
TIANWANG 1A (TW-1A)     
1 40928U 15051D   17153.23066426  .00005098  00000-0  14740-3 0  9992
2 40928  97.2279 189.3164 0010823 251.6378 175.4255 15.36016191 94408
LEMUR-2-JOEL            
1 40932U 15052C   17152.08717436  .00001062  00000-0  57075-4 0  9990
2 40932   6.0055 342.8454 0013284  26.6594 333.3940 14.77465238 90625
LEMUR-2-CHRIS           
1 40933U 15052D   17152.02354542  .00000968  00000-0  43790-4 0  9993
2 40933   6.0054 342.2363 0014819  29.9991 330.0474 14.77607870 90626
LEMUR-2-JEROEN          
1 40934U 15052E   17152.05528116  .00001701  00000-0  14715-3 0  9997
2 40934   6.0064 347.0406 0010601  13.3984 346.6871 14.76929361 90550
LEMUR-2-PETER           
1 40935U 15052F   17152.07208133  .00000862  00000-0  31082-4 0  9998
2 40935   6.0046 348.2236 0010924  11.2702 348.7761 14.76719938 90556
EXACTVIEW 9             
1 40936U 15052G   17148.01461415  .00002039  00000-0  19756-3 0  9993
2 40936   6.0108  19.3960 0011242 304.0369  56.0348 14.76245306 89946
ATHENOXAT 1             
1 41168U 15077C   17151.05318001  .00000865  00000-0  10943-4 0  9993
2 41168  14.9871 294.5744 0011966 137.9711 350.1247 15.11528495 80448
GALASSIA                
1 41170U 15077E   17152.53919185  .00002213  00000-0  86438-4 0  9991
2 41170  14.9891 280.2050 0013474 177.0503 182.9898 15.12046075 80707
VELOX 2                 
1 41171U 15077F   17152.49174640  .00001794  00000-0  68070-4 0  9991
2 41171  14.9917 292.1457 0009091 134.5262 225.5802 15.09837291 80590
AGGIESAT 4              
1 41313U 98067HP  17153.22292116  .00020593  00000-0  14991-3 0  9990
2 41313  51.6367  79.5265 0004916  86.2061 273.9500 15.73290146 76578
BEVO 2                  
1 41314U 98067HQ  17153.18050705  .00469042  12482-3  44412-3 0  9999
2 41314  51.6180  51.4412 0003890 205.0351 155.0475 16.11329812 76733
HORYU-IV                
1 41340U 16012D   17153.28742034  .00000581  00000-0  38128-4 0  9999
2 41340  31.0042 203.6492 0014286 287.0041  72.9029 15.00584706 70779
OUFTI-1                 
1 41458U 16025C   17153.13365224  .00001566  00000-0  88064-4 0  9997
2 41458  98.1877 189.8523 0173911 340.4027  19.0565 15.03127436 60321
E-ST@R-II               
1 41459U 16025D   17153.21962838  .00002650  00000-0  14614-3 0  9995
2 41459  98.1879 189.8938 0174000 340.6862  18.7817 15.02985994 60329
AAUSAT 4                
1 41460U 16025E   17153.15925681  .00004208  00000-0  22911-3 0  9995
2 41460  98.1790 189.9214 0167028 339.1490  20.2956 15.03856840 60334
DIWATA-1                
1 41463U 98067HT  17153.26288469  .00009029  00000-0  10687-3 0  9995
2 41463  51.6419 100.6091 0001876  99.4924  50.4140 15.62092342 62468
NODES 2                 
1 41477U 98067HX  17153.22617313  .00056252  00000-0  28881-3 0  9995
2 41477  51.6280  80.9307 0003875  74.8456 285.2974 15.80665309 59702
NODES 1                 
1 41478U 98067HY  17153.19985583  .00053264  00000-0  27997-3 0  9996
2 41478  51.6316  81.5254 0003658  74.8705 285.2701 15.80175372 59699
FLOCK 2E'-1             
1 41479U 98067HZ  17153.05108545  .00018693  00000-0  16684-3 0  9995
2 41479  51.6352  93.4121 0001339 111.9128 248.2011 15.68464094 59489
FLOCK 2E'-3             
1 41480U 98067JA  17153.20243059  .00015469  00000-0  13931-3 0  9994
2 41480  51.6353  92.1934 0000840  54.1454 305.9620 15.68406220 59503
FLOCK 2E'-2             
1 41481U 98067JB  17153.22353537  .00017199  00000-0  14952-3 0  9996
2 41481  51.6338  90.7955 0001722 119.9483 240.1685 15.69179416 59513
FLOCK 2E'-4             
1 41482U 98067JC  17153.21074583  .00019813  00000-0  15948-3 0  9998
2 41482  51.6332  89.9454 0001735  57.9675 302.1491 15.70933406 59524
FLOCK 2E-1              
1 41483U 98067ID  17153.21574642  .00013435  00000-0  12602-3 0  9998
2 41483  51.6368  93.0669 0002180  18.9770 341.1307 15.67538106 59350
FLOCK 2E-2              
1 41484U 98067JE  17153.21761989  .00015481  00000-0  13627-3 0  9992
2 41484  51.6376  91.5964 0002299  31.8723 328.2413 15.68968220 59375
FLOCK 2E-3              
1 41486U 98067JG  17153.22297065  .00017484  00000-0  16714-3 0  9999
2 41486  51.6360  94.6073 0002717  48.5595 311.5634 15.66815511 59352
FLOCK 2E-4              
1 41487U 98067JH  17153.21054258  .00013208  00000-0  12315-3 0  9997
2 41487  51.6364  93.0005 0003690  41.4691 318.6585 15.67704343 59371
FLOCK 2E-6              
1 41563U 98067JM  17153.19050001  .00012156  00000-0  12036-3 0  9992
2 41563  51.6358  95.1150 0001483 121.1575 238.9567 15.66293153 57416
FLOCK 2E-5              
1 41564U 98067JN  17153.20014384  .00012063  00000-0  12000-3 0  9997
2 41564  51.6359  95.1871 0001279 113.5845 246.5286 15.66182991 57405
FLOCK 2E-7              
1 41565U 98067JP  17153.23014428  .00017926  00000-0  15632-3 0  9997
2 41565  51.6352  91.6076 0004860  63.9629 296.1868 15.69061333 57354
FLOCK 2E-8              
1 41566U 98067JQ  17153.20219186  .00102344  15025-4  32540-3 0  9996
2 41566  51.6281  74.6894 0005558 106.0309 254.1310 15.91070776 57569
FLOCK 2E'-5             
1 41567U 98067JR  17153.24937695  .00011430  00000-0  11778-3 0  9991
2 41567  51.6368  96.2782 0005015  76.7301 283.4254 15.65349762 57269
FLOCK 2E'-6             
1 41568U 98067JS  17153.24384942  .00014157  00000-0  13514-3 0  9992
2 41568  51.6355  93.9545 0004661  75.3372 284.8140 15.67041718 57324
FLOCK 2E'-8             
1 41569U 98067JT  17153.20212192  .00016525  00000-0  14312-3 0  9994
2 41569  51.6352  91.4235 0002586  48.5558 311.5661 15.69305545 57232
FLOCK 2E'-7             
1 41570U 98067JU  17153.23768639  .00020637  00000-0  15934-3 0  9991
2 41570  51.6351  88.6719 0003130  34.7727 325.3476 15.71898357 57293
FLOCK 2E-9              
1 41571U 98067JV  17153.20510881  .00016041  00000-0  13687-3 0  9990
2 41571  51.6356  90.7080 0004442  65.7545 294.3916 15.69692672 57229
FLOCK 2E-10             
1 41572U 98067JW  17153.22686703  .00016872  00000-0  15112-3 0  9997
2 41572  51.6357  92.3590 0004884  67.2244 292.9268 15.68454837 57208
FLOCK 2E-12             
1 41573U 98067JX  17153.23541633  .00017902  00000-0  15485-3 0  9999
2 41573  51.6351  91.6537 0004308  78.4604 281.6876 15.69263170 57211
FLOCK 2E-11             
1 41574U 98067JY  17153.23247982  .00018392  00000-0  15806-3 0  9991
2 41574  51.6340  90.8412 0005312  79.7849 280.3747 15.69395494 57223
FLOCK 2E'-9             
1 41575U 98067JZ  17153.04717253  .00018430  00000-0  15260-3 0  9991
2 41575  51.6335  91.0825 0005029  89.7712 270.3862 15.70300020 57190
FLOCK 2E'-10            
1 41576U 98067KA  17153.22609729  .00017949  00000-0  15498-3 0  9997
2 41576  51.6361  91.6144 0004907  88.9028 271.2531 15.69302000 57107
FLOCK 2E'-11            
1 41577U 98067KB  17153.19404216  .00017608  00000-0  15517-3 0  9992
2 41577  51.6365  92.1582 0005263  72.6470 287.5102 15.68816857 56912
FLOCK 2E'-12            
1 41578U 98067KC  17153.20576119  .00020195  00000-0  16936-3 0  9998
2 41578  51.6340  91.4210 0005659  66.3550 293.8040 15.69914687 56927
LEMUR-2-DRMUZZ          
1 41595U 16019B   17153.21962761  .00234256  34101-4  44914-3 0  9992
2 41595  51.6282  67.2195 0002068 179.9264 180.1746 16.00068037 54371
FLOCK 2P-6              
1 41606U 16040H   17153.24180586  .00002334  00000-0  10482-3 0  9999
2 41606  97.4600 216.0691 0012712 122.7677 237.4786 15.22097572 52436
FLOCK 2P-11             
1 41608U 16040K   17153.11572504  .00002783  00000-0  12436-3 0  9991
2 41608  97.4593 215.9164 0012757 123.5271 236.7186 15.22108546 52351
